[{"OBJECT_NAME":"ONEWEB-0056","OBJECT_ID":"2020-008AE","EPOCH":"2025-08-26T15:05:54.346272","MEAN_MOTION":13.10372323,"ECCENTRICITY":0.00017515,"INCLINATION":87.8756,"RA_OF_ASC_NODE":95.0109,"ARG_OF_PERICENTER":83.2071,"MEAN_ANOMALY":276.9256,"EPHEMERIS_TYPE":0,"CLASSIFICATION_TYPE":"U","NORAD_CAT_ID":45159,"ELEMENT_SET_NO":999,"REV_AT_EPOCH":26960,"BSTAR":-0.0018953578,"MEAN_MOTION_DOT":-6.49e-6,"MEAN_MOTION_DDOT":0},{"OBJECT_NAME":"ONEWEB-0057","OBJECT_ID":"2020-008AF","EPOCH":"2025-08-26T20:46:31.102464","MEAN_MOTION":13.10373701,"ECCENTRICITY":0.00018729,"INCLINATION":87.876,"RA_OF_ASC_NODE":94.9779,"ARG_OF_PERICENTER":83.8422,"MEAN_ANOMALY":276.2919,"EPHEMERIS_TYPE":0,"CLASSIFICATION_TYPE":"U","NORAD_CAT_ID":45160,"ELEMENT_SET_NO":999,"REV_AT_EPOCH":26980,"BSTAR":-0.0023584555,"MEAN_MOTION_DOT":-8.11e-6,"MEAN_MOTION_DDOT":0},{"OBJECT_NAME":"ONEWEB-0058","OBJECT_ID":"2020-008AG","EPOCH":"2025-08-26T20:27:35.867808","MEAN_MOTION":13.10370999,"ECCENTRICITY":0.00016638,"INCLINATION":87.8755,"RA_OF_ASC_NODE":94.9907,"ARG_OF_PERICENTER":77.317,"MEAN_ANOMALY":282.8143,"EPHEMERIS_TYPE":0,"CLASSIFICATION_TYPE":"U","NORAD_CAT_ID":45161,"ELEMENT_SET_NO":999,"REV_AT_EPOCH":26987,"BSTAR":-0.001953118,"MEAN_MOTION_DOT":-6.69e-6,"MEAN_MOTION_DDOT":0},{"OBJECT_NAME":"ONEWEB-0059","OBJECT_ID":"2020-008AH","EPOCH":"2025-08-26T20:22:37.776576","MEAN_MOTION":13.103688,"ECCENTRICITY":0.00016242,"INCLINATION":87.8757,"RA_OF_ASC_NODE":94.991,"ARG_OF_PERICENTER":78.8925,"MEAN_ANOMALY":281.2385,"EPHEMERIS_TYPE":0,"CLASSIFICATION_TYPE":"U","NORAD_CAT_ID":45162,"ELEMENT_SET_NO":999,"REV_AT_EPOCH":26977,"BSTAR":-0.0012732422,"MEAN_MOTION_DOT":-4.32e-6,"MEAN_MOTION_DDOT":0},{"OBJECT_NAME":"ONEWEB-0062","OBJECT_ID":"2020-008AJ","EPOCH":"2025-08-26T20:59:40.826976","MEAN_MOTION":13.10375779,"ECCENTRICITY":0.0001353,"INCLINATION":87.8759,"RA_OF_ASC_NODE":94.9645,"ARG_OF_PERICENTER":83.5518,"MEAN_ANOMALY":276.5763,"EPHEMERIS_TYPE":0,"CLASSIFICATION_TYPE":"U","NORAD_CAT_ID":45163,"ELEMENT_SET_NO":999,"REV_AT_EPOCH":26964,"BSTAR":-0.00066020793,"MEAN_MOTION_DOT":-2.18e-6,"MEAN_MOTION_DDOT":0},{"OBJECT_NAME":"ONEWEB-0065","OBJECT_ID":"2020-008AK","EPOCH":"2025-08-26T20:30:58.925952","MEAN_MOTION":13.10370514,"ECCENTRICITY":0.00019621,"INCLINATION":87.8754,"RA_OF_ASC_NODE":94.9937,"ARG_OF_PERICENTER":90.5689,"MEAN_ANOMALY":269.5663,"EPHEMERIS_TYPE":0,"CLASSIFICATION_TYPE":"U","NORAD_CAT_ID":45164,"ELEMENT_SET_NO":999,"REV_AT_EPOCH":26933,"BSTAR":-0.0017867093,"MEAN_MOTION_DOT":-6.11e-6,"MEAN_MOTION_DDOT":0},{"OBJECT_NAME":"ONEWEB-0066","OBJECT_ID":"2020-020A","EPOCH":"2025-08-26T22:42:44.189856","MEAN_MOTION":13.11413847,"ECCENTRICITY":0.00019264,"INCLINATION":87.8779,"RA_OF_ASC_NODE":79.6923,"ARG_OF_PERICENTER":80.0427,"MEAN_ANOMALY":280.0918,"EPHEMERIS_TYPE":0,"CLASSIFICATION_TYPE":"U","NORAD_CAT_ID":45424,"ELEMENT_SET_NO":999,"REV_AT_EPOCH":26411,"BSTAR":0.00073148647,"MEAN_MOTION_DOT":2.72e-6,"MEAN_MOTION_DDOT":0},{"OBJECT_NAME":"ONEWEB-0067","OBJECT_ID":"2020-020B","EPOCH":"2025-08-26T19:56:51.505152","MEAN_MOTION":13.11420542,"ECCENTRICITY":0.00018852,"INCLINATION":87.8772,"RA_OF_ASC_NODE":79.6238,"ARG_OF_PERICENTER":82.24,"MEAN_ANOMALY":277.8942,"EPHEMERIS_TYPE":0,"CLASSIFICATION_TYPE":"U","NORAD_CAT_ID":45425,"ELEMENT_SET_NO":999,"REV_AT_EPOCH":26415,"BSTAR":-0.00082386223,"MEAN_MOTION_DOT":-2.79e-6,"MEAN_MOTION_DDOT":0},{"OBJECT_NAME":"ONEWEB-0080","OBJECT_ID":"2020-020C","EPOCH":"2025-08-26T22:00:00.930816","MEAN_MOTION":13.11420207,"ECCENTRICITY":0.00015696,"INCLINATION":87.8785,"RA_OF_ASC_NODE":79.6995,"ARG_OF_PERICENTER":73.4127,"MEAN_ANOMALY":286.7174,"EPHEMERIS_TYPE":0,"CLASSIFICATION_TYPE":"U","NORAD_CAT_ID":45426,"ELEMENT_SET_NO":999,"REV_AT_EPOCH":26413,"BSTAR":0.00074722455,"MEAN_MOTION_DOT":2.78e-6,"MEAN_MOTION_DDOT":0},{"OBJECT_NAME":"ONEWEB-0090","OBJECT_ID":"2020-020D","EPOCH":"2025-08-26T22:28:06.409056","MEAN_MOTION":13.11416273,"ECCENTRICITY":0.00016713,"INCLINATION":87.8777,"RA_OF_ASC_NODE":79.6964,"ARG_OF_PERICENTER":85.6011,"MEAN_ANOMALY":274.5308,"EPHEMERIS_TYPE":0,"CLASSIFICATION_TYPE":"U","NORAD_CAT_ID":45427,"ELEMENT_SET_NO":999,"REV_AT_EPOCH":26410,"BSTAR":0.0016654235,"MEAN_MOTION_DOT":6.03e-6,"MEAN_MOTION_DDOT":0},{"OBJECT_NAME":"ONEWEB-0061","OBJECT_ID":"2020-020E","EPOCH":"2025-08-26T19:34:30.237600","MEAN_MOTION":13.11418341,"ECCENTRICITY":0.00017244,"INCLINATION":87.878,"RA_OF_ASC_NODE":79.7024,"ARG_OF_PERICENTER":83.2851,"MEAN_ANOMALY":276.8473,"EPHEMERIS_TYPE":0,"CLASSIFICATION_TYPE":"U","NORAD_CAT_ID":45428,"ELEMENT_SET_NO":999,"REV_AT_EPOCH":26404,"BSTAR":-0.0015770453,"MEAN_MOTION_DOT":-5.46e-6,"MEAN_MOTION_DDOT":0},{"OBJECT_NAME":"ONEWEB-0081","OBJECT_ID":"2020-020F","EPOCH":"2025-08-26T22:47:37.529952","MEAN_MOTION":13.11413874,"ECCENTRICITY":0.00019014,"INCLINATION":87.8775,"RA_OF_ASC_NODE":79.6942,"ARG_OF_PERICENTER":81.5297,"MEAN_ANOMALY":278.6046,"EPHEMERIS_TYPE":0,"CLASSIFICATION_TYPE":"U","NORAD_CAT_ID":45429,"ELEMENT_SET_NO":999,"REV_AT_EPOCH":26417,"BSTAR":0.00020191615,"MEAN_MOTION_DOT":8.4e-7,"MEAN_MOTION_DDOT":0},{"OBJECT_NAME":"ONEWEB-0069","OBJECT_ID":"2020-020G","EPOCH":"2025-08-26T22:31:45.893568","MEAN_MOTION":13.11415467,"ECCENTRICITY":0.00018246,"INCLINATION":87.8782,"RA_OF_ASC_NODE":79.6903,"ARG_OF_PERICENTER":85.4173,"MEAN_ANOMALY":274.7163,"EPHEMERIS_TYPE":0,"CLASSIFICATION_TYPE":"U","NORAD_CAT_ID":45430,"ELEMENT_SET_NO":999,"REV_AT_EPOCH":26410,"BSTAR":0.0011771604,"MEAN_MOTION_DOT":4.3e-6,"MEAN_MOTION_DDOT":0},{"OBJECT_NAME":"ONEWEB-0031","OBJECT_ID":"2020-020H","EPOCH":"2025-08-26T20:01:35.704992","MEAN_MOTION":13.11418374,"ECCENTRICITY":0.00015291,"INCLINATION":87.878,"RA_OF_ASC_NODE":79.7409,"ARG_OF_PERICENTER":85.2165,"MEAN_ANOMALY":274.9137,"EPHEMERIS_TYPE":0,"CLASSIFICATION_TYPE":"U","NORAD_CAT_ID":45431,"ELEMENT_SET_NO":999,"REV_AT_EPOCH":26407,"BSTAR":-0.00035357838,"MEAN_MOTION_DOT":-1.13e-6,"MEAN_MOTION_DDOT":0},{"OBJECT_NAME":"ONEWEB-0027","OBJECT_ID":"2020-020J","EPOCH":"2025-08-26T21:37:56.008416","MEAN_MOTION":13.17648725,"ECCENTRICITY":0.00014542,"INCLINATION":87.9035,"RA_OF_ASC_NODE":64.3896,"ARG_OF_PERICENTER":99.433,"MEAN_ANOMALY":260.6966,"EPHEMERIS_TYPE":0,"CLASSIFICATION_TYPE":"U","NORAD_CAT_ID":45432,"ELEMENT_SET_NO":999,"REV_AT_EPOCH":26760,"BSTAR":-2.0444138e-5,"MEAN_MOTION_DOT":5.0e-8,"MEAN_MOTION_DDOT":0},{"OBJECT_NAME":"ONEWEB-0064","OBJECT_ID":"2020-020K","EPOCH":"2025-08-26T14:29:33.047808","MEAN_MOTION":13.11418292,"ECCENTRICITY":0.00015491,"INCLINATION":87.8779,"RA_OF_ASC_NODE":79.7783,"ARG_OF_PERICENTER":87.7947,"MEAN_ANOMALY":272.3358,"EPHEMERIS_TYPE":0,"CLASSIFICATION_TYPE":"U","NORAD_CAT_ID":45433,"ELEMENT_SET_NO":999,"REV_AT_EPOCH":26407,"BSTAR":-0.00039581722,"MEAN_MOTION_DOT":-1.28e-6,"MEAN_MOTION_DDOT":0}]
