ONEWEB-0056             
1 45159U 20008AE  25238.62910123 -.00000649  00000+0 -18954-2 0  9997
2 45159  87.8756  95.0109 0001751  83.2071 276.9256 13.10372323269601
ONEWEB-0057             
1 45160U 20008AF  25238.86563776 -.00000811  00000+0 -23585-2 0  9990
2 45160  87.8760  94.9779 0001872  83.8422 276.2919 13.10373701269801
ONEWEB-0058             
1 45161U 20008AG  25238.85249847 -.00000669  00000+0 -19531-2 0  9997
2 45161  87.8755  94.9907 0001663  77.3170 282.8143 13.10370999269870
ONEWEB-0059             
1 45162U 20008AH  25238.84904834 -.00000432  00000+0 -12732-2 0  9995
2 45162  87.8757  94.9910 0001624  78.8925 281.2385 13.10368800269776
ONEWEB-0062             
1 45163U 20008AJ  25238.87477809 -.00000218  00000+0 -66021-3 0  9999
2 45163  87.8759  94.9645 0001353  83.5518 276.5763 13.10375779269640
ONEWEB-0065             
1 45164U 20008AK  25238.85484868 -.00000611  00000+0 -17867-2 0  9991
2 45164  87.8754  94.9937 0001962  90.5689 269.5663 13.10370514269332
ONEWEB-0066             
1 45424U 20020A   25238.94634479  .00000272  00000+0  73149-3 0  9996
2 45424  87.8779  79.6923 0001926  80.0427 280.0918 13.11413847264117
ONEWEB-0067             
1 45425U 20020B   25238.83115168 -.00000279  00000+0 -82386-3 0  9996
2 45425  87.8772  79.6238 0001885  82.2400 277.8942 13.11420542264154
ONEWEB-0080             
1 45426U 20020C   25238.91667744  .00000278  00000+0  74722-3 0  9990
2 45426  87.8785  79.6995 0001569  73.4127 286.7174 13.11420207264138
ONEWEB-0090             
1 45427U 20020D   25238.93618529  .00000603  00000+0  16654-2 0  9991
2 45427  87.8777  79.6964 0001671  85.6011 274.5308 13.11416273264106
ONEWEB-0061             
1 45428U 20020E   25238.81562775 -.00000546  00000+0 -15770-2 0  9996
2 45428  87.8780  79.7024 0001724  83.2851 276.8473 13.11418341264043
ONEWEB-0081             
1 45429U 20020F   25238.94973993  .00000084  00000+0  20192-3 0  9999
2 45429  87.8775  79.6942 0001901  81.5297 278.6046 13.11413874264174
ONEWEB-0069             
1 45430U 20020G   25238.93872562  .00000430  00000+0  11772-2 0  9998
2 45430  87.8782  79.6903 0001824  85.4173 274.7163 13.11415467264101
ONEWEB-0031             
1 45431U 20020H   25238.83444103 -.00000113  00000+0 -35358-3 0  9991
2 45431  87.8780  79.7409 0001529  85.2165 274.9137 13.11418374264072
ONEWEB-0027             
1 45432U 20020J   25238.90134269  .00000005  00000+0 -20444-4 0  9999
2 45432  87.9035  64.3896 0001454  99.4330 260.6966 13.17648725267600
ONEWEB-0064             
1 45433U 20020K   25238.60385472 -.00000128  00000+0 -39582-3 0  9990
2 45433  87.8779  79.7783 0001549  87.7947 272.3358 13.11418292264070
